0 OPS 6391 (FLTSATCOM 1)
1 10669U 78016A   21275.70188316  .00000025  00000-0  00000-0 0  9992
2 10669  11.1729 309.3851 0008237 196.9306 159.8725  0.99002885737553
0 INTELSAT 4A-F6
1 10778U 78035A   21275.61368698 -.00000308  00000-0  00000-0 0  9992
2 10778  12.0150 325.4624 0004949 251.9090 112.1021  1.00382046104931
0 OPS 8790
1 10787U 78038A   21275.60482428 -.00000012  00000-0  00000-0 0  9994
2 10787   6.7337 318.3719 0018758 247.3320 259.0335  1.00495799  7999
0 YURI (BSE)
1 10792U 78039A   21275.66082874  .00000049  00000-0  00000-0 0  9997
2 10792   9.6558 303.4908 0018728 260.0138 104.9416  1.00208145101533
0 OTS 2
1 10855U 78044A   21275.47747477 -.00000180  00000-0  00000-0 0  9996
2 10855  11.6491 318.5984 0006238 314.5091 208.1016  0.99138776186950
0 GOES 3
1 10953U 78062A   21275.69632907  .00000088  00000-0  00000-0 0  9996
2 10953  10.7271 314.1648 0001419 144.3961 212.8631  0.99358800111455
0 COMSTAR 3
1 10975U 78068A   21275.16818060 -.00000234  00000-0  00000-0 0  9998
2 10975  12.6135 328.4155 0018885 275.0130 138.7739  0.99198868 29140
0 GEOS 2
1 10981U 78071A   21275.42542698 -.00000270  00000-0  00000-0 0  9999
2 10981   9.7496 304.7343 0002306 320.2791 218.1749  0.99379963156914
0 RADUGA 4
1 10987U 78073A   21275.52687983 -.00000291  00000-0  00000-0 0  9998
2 10987   9.0584 299.7856 0008627 348.9572  10.1307  1.00212429102365
0 ANIK B1 (TELESAT-4)
1 11153U 78116A   21275.37975235  .00000105  00000-0  00000-0 0  9998
2 11153  12.5273 329.3450 0015836 287.0286 103.9248  0.99813683118874
0 EKRAN 3
1 11273U 79015A   21275.66056708  .00000044  00000-0  00000-0 0  9999
2 11273   9.3471 301.7715 0037257 320.4042  44.6304  1.00311792117782
0 RADUGA 5
1 11343U 79035A   21275.63840002 -.00000025  00000-0  00000-0 0  9994
2 11343   9.5054 302.4009 0006127 159.7291 205.6487  1.00286405112120
0 GORIZONT 2
1 11440U 79062A   21275.59077314 -.00000216  00000-0  00000-0 0  9997
2 11440   9.8819 304.8868 0003176 266.7691 100.0329  1.00252108120791
0 WESTAR 3
1 11484U 79072A   21275.78591168  .00000123  00000-0  00000-0 0  9991
2 11484  12.9742 334.1737 0000667 159.7825 207.9900  0.99940482123344
0 EKRAN 4
1 11561U 79087A   21275.59384521 -.00000193  00000-0  00000-0 0  9993
2 11561   9.7633 304.0883 0010178 180.1219 184.4252  1.00319277 30143
0 GORIZONT 3
1 11648U 79105A   21275.66222424 -.00000009  00000-0  00000-0 0  9997
2 11648  10.0316 306.2532 0013084 206.1546 164.0465  1.00198801105251
0 OPS 6393 (FLTSATCOM 3)
1 11669U 80004A   21275.42603750 -.00000273  00000-0  00000-0 0  9992
2 11669   9.7258 317.7912 0025841 196.3080 331.9595  1.00224079152629
0 RADUGA 6
1 11708U 80016A   21275.64037072 -.00000005  00000-0  00000-0 0  9994
2 11708   9.8468 305.2974 0002543 195.9473 166.8108  1.00202931104931
0 GOES 4
1 11964U 80074A   21275.60687465  .00000067  00000-0  00000-0 0  9992
2 11964  11.6594 317.9665 0032107  65.2861  85.9016  0.99227895110380
0 RADUGA 7
1 12003U 80081A   21275.61530219 -.00000081  00000-0  00000-0 0  9997
2 12003  10.0224 307.1547 0010230 256.1096 278.3981  1.00383330106072
0 SBS 1
1 12065U 80091A   21275.59632731 -.00000299  00000-0  00000-0 0  9996
2 12065  12.9106 331.2631 0009947 143.8019 221.4833  0.99819659 29324
0 EKRAN 6
1 12120U 80104A   21275.62150528  .00000027  00000-0  00000-0 0  9994
2 12120  10.2787 308.3205 0004671  47.5867 300.7769  1.00230441110176
0 ESIAFI 1 (COMSTAR 4)
1 12309U 81018A   21275.65709220 -.00000113  00000-0  00000-0 0  9997
2 12309  11.9699 324.9241 0003908  74.9479 285.1038  1.00259875150210
0 RADUGA 8
1 12351U 81027A   21275.42682247 -.00000239  00000-0  00000-0 0  9997
2 12351  10.3481 307.7818 0083350 219.6043 323.8077  1.00365199105290
0 GOES 5
1 12472U 81049A   21275.54986257  .00000082  00000-0  00000-0 0  9991
2 12472  12.3902 329.0704 0001018 197.1533 265.0806  1.00301875105614
0 APPLE
1 12545U 81057B   21275.68086213  .00000111  00000-0  00000-0 0  9992
2 12545  10.8973 313.1021 0028473 178.9485 334.2347  1.00038236105199
0 EKRAN 7
1 12564U 81061A   21275.57410463 -.00000315  00000-0  00000-0 0  9991
2 12564  10.4993 310.1451 0003874  68.2212 299.3119  1.00286542112280
0 RADUGA 9
1 12618U 81069A   21275.66170091  .00000017  00000-0  00000-0 0  9997
2 12618  10.5464 310.5447 0003715 140.0377 222.6725  1.00192067 30119
0 HIMAWARI 2 (GMS 2)
1 12677U 81076A   21275.61368698 -.00000116  00000-0  00000-0 0  9998
2 12677  11.5986 318.8821 0008061 271.3693  95.7773  0.99548434115126
0 SBS 2
1 12855U 81096A   21275.45093251 -.00000006  00000-0  00000-0 0  9998
2 12855  12.9531 334.5250 0006851 174.3412 201.6389  1.00162063101402
0 RADUGA 10
1 12897U 81102A   21275.66196257 -.00000010  00000-0  00000-0 0  9990
2 12897  10.6269 311.4668 0005594 169.3954 194.1166  1.00265002100119
0 SATCOM 3R
1 12967U 81114A   21275.59960159 -.00000348  00000-0  00000-0 0  9997
2 12967  14.0509 345.0438 0001162 226.2481 127.7656  1.00107131110851
0 INTELSAT 503
1 12994U 81119A   21274.92924306 -.00000204  00000-0  00000-0 0  9993
2 12994  13.6001 339.8078 0033305 209.8388 145.4399  0.99471092109598
0 SATCOM 4
1 13035U 82004A   21274.54339136 -.00000329  00000-0  00000-0 0  9991
2 13035  14.4815 348.6463 0034169 155.0890 205.1035  0.99595726108087
0 EKRAN 8
1 13056U 82009A   21275.35752257  .00000029  00000-0  00000-0 0  9998
2 13056  10.9437 312.8343 0025214 294.7750  79.9075  0.99946567101445
0 WESTAR 4
1 13069U 82014A   21274.93212125 -.00000078  00000-0  00000-0 0  9991
2 13069  14.3761 348.0547 0001851 186.4608 176.1632  0.99776908 29295
0 INTELSAT 504
1 13083U 82017A   21275.53296692 -.00000309  00000-0  00000-0 0  9995
2 13083  13.6850 340.1863 0017594 205.5780 155.4571  0.99228923124704
0 INSAT 1A
1 13129U 82031A   21275.82025021 -.00000374  00000-0  00000-0 0  9992
2 13129  10.9336 314.2975 0008070  23.8646  87.6801  1.00249381149209
0 COSMOS 1366
1 13177U 82044A   21275.66283475 -.00000046  00000-0  00000-0 0  9996
2 13177  12.1122 314.9874 0008220  96.6740 268.1054  1.00283289116388
0 WESTAR 5
1 13269U 82058A   21275.83382765  .00000060  00000-0  00000-0 0  9999
2 13269  14.7031 350.2128 0014772 222.8744 144.0950  0.99213812102494
0 ANIK D1 (TELESAT 6)
1 13431U 82082A   21275.01230156 -.00000245  00000-0  00000-0 0  9999
2 13431  14.0958 346.0432 0002801 313.6771  45.5355  1.00132760 29381
0 EKRAN 9
1 13554U 82093A   21275.59794444 -.00000336  00000-0  00000-0 0  9996
2 13554  10.8515 315.0011 0024187 329.7172  45.9760  1.00256125102774
0 GORIZONT 6
1 13624U 82103A   21275.61984950 -.00000092  00000-0  00000-0 0  9991
2 13624  11.0188 316.8517 0001988 177.7766 355.2526  1.00163892103715
0 SATCOM C5
1 13631U 82105A   21275.62035042 -.00000108  00000-0  00000-0 0  9999
2 13631  14.0140 345.5754 0004608  86.4966  58.0709  1.00273911109144
0 SBS 3
1 13651U 82110B   21274.96415532  .00000115  00000-0  00000-0 0  9996
2 13651  14.2823 347.4933 0009515  86.4878 333.5244  0.99922049 29360
0 ANIK C3 (TELESAT-5)
1 13652U 82110C   21275.74076934  .00000023  00000-0  00000-0 0  9991
2 13652  14.2711 347.2876 0003531  90.3233 269.3623  0.99895623 29333
0 SAKURA 2A (CS-2A)
1 13782U 83006A   21274.05784424 -.00000220  00000-0  00000-0 0  9993
2 13782  13.0680 333.4408 0007595 280.8991  75.5439  0.99405939110743
0 RADUGA 12
1 13974U 83028A   21275.66527686 -.00000156  00000-0  00000-0 0  9991
2 13974  11.6893 320.8667 0002940 108.8990 262.9275  1.00254501152151
0 SATCOM 1R
1 13984U 83030A   21274.08210012  .00000054  00000-0  00000-0 0  9998
2 13984  14.6590 351.7801 0009808  97.9554 331.9036  0.99856527113305
0 GOES 6
1 14050U 83041A   21275.48499905  .00000030  00000-0  00000-0 0  9994
2 14050  12.8940 334.2865 0003539 143.8401 300.1621  1.00307156198787
0 INTELSAT 506
1 14077U 83047A   21275.13211240 -.00000140  00000-0  00000+0 0  9997
2 14077  14.3234 346.3966 0035911 303.0747  56.2571  0.99160473107034
0 NAHUEL I2 (ANIK C2)
1 14133U 83059B   21274.90967119 -.00000120  00000-0  00000-0 0  9999
2 14133  14.5685 349.0806 0039410  80.2573 280.2151  0.99124936 29109
0 PALAPA B1
1 14134U 83059C   21275.37727390  .00000112  00000-0  00000-0 0  9997
2 14134  13.7277 342.5335 0005353  86.2898 287.7585  1.00169024103575
0 GALAXY 1
1 14158U 83065A   21275.73868668 -.00000121  00000-0  00000-0 0  9995
2 14158  14.7830 355.1046 0001733 107.3682 255.9085  1.00100994 29424
0 ARABSAT 1DR (TELSTAR 3A)
1 14234U 83077A   21274.19282688 -.00000128  00000-0  00000-0 0  9991
2 14234  14.9603 355.2524 0028445 123.9430 236.3537  0.99521116 29228
0 INSAT 1B
1 14318U 83089B   21274.80544314  .00000134  00000-0  00000-0 0  9998
2 14318  13.4854 340.0536 0012801 190.7908 164.9543  1.00342518107960
0 SATCOM 2R
1 14328U 83094A   21273.62410447 -.00000298  00000-0  00000-0 0  9995
2 14328  15.1594 359.2871 0016420  43.2427 314.9684  0.99410780138448
0 GALAXY 2
1 14365U 83098A   21275.16848154 -.00000177  00000-0  00000-0 0  9997
2 14365  14.7715 355.4447 0007161  73.6766 342.8850  1.00218661115011
0 EKRAN 11
1 14377U 83100A   21275.59985912 -.00000265  00000-0  00000-0 0  9993
2 14377  11.3463 319.1068 0000985 217.5751 142.3985  1.00319385 30140
0 INTELSAT 507
1 14421U 83105A   21273.97202229  .00000003  00000-0  00000-0 0  9990
2 14421  14.0069 344.0633 0005703  89.8418 303.5760  0.99697770120089
0 YURI 2A (BS-2A)
1 14659U 84005A   21275.54986257  .00000043  00000-0  00000-0 0  9992
2 14659  13.5760 337.4258 0017739 172.3334 282.4833  0.99049924101290
0 RADUGA 14
1 14725U 84016A   21275.71836300  .00000000  00000-0  00000-0 0  9993
2 14725  11.8599 324.4688 0004857 128.6728 241.1791  1.00281148100873
0 COSMOS 1540
1 14783U 84022A   21275.66292197 -.00000048  00000-0  00000-0 0  9991
2 14783  12.8535 321.0334 0006189 195.5834 163.3747  1.00272206103784
0 COSMOS 1546
1 14867U 84031A   21275.66518964 -.00000154  00000-0  00000-0 0  9995
2 14867  11.9346 325.0682 0021983 340.2060  26.8061  1.00267379 30142
0 STTW-T2
1 14899U 84035A   21275.34285685  .00000105  00000-0  00000-0 0  9995
2 14899  12.3676 330.8436 0010688 140.0296  42.6037  1.00316056 30131
